GLOBALSTAR M094         
1 39074U 13005C   24187.58836950 -.00000119  00000+0 -87003-4 0  9992
2 39074  51.9935 157.4079 0000090 294.6064  65.4794 12.62267436528605
GLOBALSTAR M096         
1 39075U 13005D   24187.44315684 -.00000083  00000+0  11340-3 0  9993
2 39075  52.0045 206.0949 0000446 196.4533 163.6320 12.62267533527504
GLOBALSTAR M078         
1 39076U 13005E   24187.57530230 -.00000072  00000+0  17859-3 0  9993
2 39076  51.9881 290.6765 0001565 127.2327 232.8683 12.62271252526358
GLOBALSTAR M095         
1 39077U 13005F   24187.60128549 -.00000069  00000+0  19320-3 0  9995
2 39077  51.9808 287.9631 0001178 149.0146 211.0790 12.62261840526002
GLOBALSTAR M087         
1 52888U 22064A   24187.56532999 -.00000124  00000+0  87246-5 0  9994
2 52888  51.9744 144.2968 0009792  51.4913 308.6864 13.37577632 99981
